TEVEL2-7                
1 63238U 25052AE  26068.66113295  .00019244  00000+0  69668-3 0  9998
2 63238  97.4054 324.3041 0008105 124.6830 235.5175 15.28414096 54803
STARLINK-33973          
1 63894U 25095E   26068.30423170  .00039295  00000+0  14293-2 0  9991
2 63894  42.9999 177.9814 0001626 273.2693  86.7973 15.27592782 47737
